{"type": "FeatureCollection", "features": [ {"type": "Feature", "properties": {"norad_id": 66988, "name": "YAOGAN-47", "group": "last-30-days", "lat": 12.83802715271794, "lon": -118.34672246124853, "alt_km": 497.2331504561871, "timestamp": "2025-12-20T18:51:30.449132+00:00", "meta": {"OBJECT_NAME": "YAOGAN-47", "OBJECT_ID": "2025-289A", "EPOCH": "2025-12-20T02:21:43.539840", "MEAN_MOTION": 15.23243112, "ECCENTRICITY": 6.467e-05, "INCLINATION": 97.5265, "RA_OF_ASC_NODE": 59.2376, "ARG_OF_PERICENTER": 91.4531, "MEAN_ANOMALY": 268.678, "EPHEMERIS_TYPE": 0, "CLASSIFICATION_TYPE": "U", "NORAD_CAT_ID": 66988, "ELEMENT_SET_NO": 999, "REV_AT_EPOCH": 166, "BSTAR": 0.00010945697, "MEAN_MOTION_DOT": 2.52e-05, "MEAN_MOTION_DDOT": 0}, "tle": {"line1": "1 66988U 25289A   25354.09842060  .00002520  00000+0  10946-3 0  9992", "line2": "2 66988  97.5265  59.2376 0000646  91.4531 268.6780 15.23243112  1668"}}, "geometry": {"type": "Point", "coordinates": [-118.34672246124853, 12.83802715271794]}}, {"type": "Feature", "properties": {"norad_id": 66989, "name": "CZ-4B R/B", "group": "last-30-days", "lat": -16.622537851817018, "lon": -121.54438014936062, "alt_km": 435.00636194992785, "timestamp": "2025-12-20T18:51:30.449143+00:00", "meta": {"OBJECT_NAME": "CZ-4B R/B", "OBJECT_ID": "2025-289B", "EPOCH": "2025-12-20T04:14:22.087392", "MEAN_MOTION": 15.68977021, "ECCENTRICITY": 0.01434037, "INCLINATION": 97.5256, "RA_OF_ASC_NODE": 60.0631, "ARG_OF_PERICENTER": 334.7401, "MEAN_ANOMALY": 24.6893, "EPHEMERIS_TYPE": 0, "CLASSIFICATION_TYPE": "U", "NORAD_CAT_ID": 66989, "ELEMENT_SET_NO": 999, "REV_AT_EPOCH": 173, "BSTAR": 0.00046062068, "MEAN_MOTION_DOT": 0.0009578, "MEAN_MOTION_DDOT": 4.888764e-06}, "tle": {"line1": "1 66989U 25289B   25354.17664453  .00095780  48888-5  46062-3 0  9990", "line2": "2 66989  97.5256  60.0631 0143403 334.7401  24.6893 15.68977021  1736"}}, "geometry": {"type": "Point", "coordinates": [-121.54438014936062, -16.622537851817018]}}, {"type": "Feature", "properties": {"norad_id": 66990, "name": "TJS-22", "group": "last-30-days", "lat": 0.8916012543226337, "lon": 78.95488045984906, "alt_km": 35800.70873160179, "timestamp": "2025-12-20T18:51:30.449155+00:00", "meta": {"OBJECT_NAME": "TJS-22", "OBJECT_ID": "2025-290A", "EPOCH": "2025-12-20T08:40:17.971968", "MEAN_MOTION": 1.00270746, "ECCENTRICITY": 0.00034478, "INCLINATION": 1.9695, "RA_OF_ASC_NODE": 285.015, "ARG_OF_PERICENTER": 341.9898, "MEAN_ANOMALY": 18.7254, "EPHEMERIS_TYPE": 0, "CLASSIFICATION_TYPE": "U", "NORAD_CAT_ID": 66990, "ELEMENT_SET_NO": 999, "REV_AT_EPOCH": 23, "BSTAR": 0, "MEAN_MOTION_DOT": 1.9e-07, "MEAN_MOTION_DDOT": 0}, "tle": {"line1": "1 66990U 25290A   25354.36131912  .00000019  00000+0  00000+0 0  9991", "line2": "2 66990   1.9695 285.0150 0003447 341.9898  18.7254  1.00270746   232"}}, "geometry": {"type": "Point", "coordinates": [78.95488045984906, 0.8916012543226337]}}, {"type": "Feature", "properties": {"norad_id": 66991, "name": "CZ-3B R/B", "group": "last-30-days", "lat": 4.721748772522835, "lon": -52.78016823444567, "alt_km": 34084.35264852606, "timestamp": "2025-12-20T18:51:30.449169+00:00", "meta": {"OBJECT_NAME": "CZ-3B R/B", "OBJECT_ID": "2025-290B", "EPOCH": "2025-12-15T17:23:33.043200", "MEAN_MOTION": 2.38388611, "ECCENTRICITY": 0.7240884, "INCLINATION": 28.4636, "RA_OF_ASC_NODE": 300.4666, "ARG_OF_PERICENTER": 182.7002, "MEAN_ANOMALY": 168.625, "EPHEMERIS_TYPE": 0, "CLASSIFICATION_TYPE": "U", "NORAD_CAT_ID": 66991, "ELEMENT_SET_NO": 999, "REV_AT_EPOCH": 16, "BSTAR": 0.00075879, "MEAN_MOTION_DOT": 0.00057911, "MEAN_MOTION_DDOT": -2.0514e-07}, "tle": {"line1": "1 66991U 25290B   25349.72468800  .00057911 -20514-6  75879-3 0  9998", "line2": "2 66991  28.4636 300.4666 7240884 182.7002 168.6250  2.38388611   165"}}, "geometry": {"type": "Point", "coordinates": [-52.78016823444567, 4.721748772522835]}}, {"type": "Feature", "properties": {"norad_id": 66993, "name": "2025-292A", "group": "last-30-days", "lat": -11.244021697865515, "lon": 68.79069580843941, "alt_km": 559.9642555497949, "timestamp": "2025-12-20T18:51:30.449180+00:00", "meta": {"OBJECT_NAME": "2025-292A", "OBJECT_ID": "2025-292A", "EPOCH": "2025-12-20T14:07:13.157472", "MEAN_MOTION": 15.0454689, "ECCENTRICITY": 0.00140297, "INCLINATION": 97.6521, "RA_OF_ASC_NODE": 67.0636, "ARG_OF_PERICENTER": 243.4353, "MEAN_ANOMALY": 116.5435, "EPHEMERIS_TYPE": 0, "CLASSIFICATION_TYPE": "U", "NORAD_CAT_ID": 66993, "ELEMENT_SET_NO": 999, "REV_AT_EPOCH": 157, "BSTAR": 0.00017652468, "MEAN_MOTION_DOT": 2.417e-05, "MEAN_MOTION_DDOT": 0}, "tle": {"line1": "1 66993U 25292A   25354.58834673  .00002417  00000+0  17652-3 0  9993", "line2": "2 66993  97.6521  67.0636 0014029 243.4353 116.5435 15.04546890  1573"}}, "geometry": {"type": "Point", "coordinates": [68.79069580843941, -11.244021697865515]}}, {"type": "Feature", "properties": {"norad_id": 66994, "name": "2025-292B", "group": "last-30-days", "lat": -9.575719834866728, "lon": 68.56075242299538, "alt_km": 559.8433589617216, "timestamp": "2025-12-20T18:51:30.449189+00:00", "meta": {"OBJECT_NAME": "2025-292B", "OBJECT_ID": "2025-292B", "EPOCH": "2025-12-20T14:06:46.736352", "MEAN_MOTION": 15.04589511, "ECCENTRICITY": 0.00137871, "INCLINATION": 97.6531, "RA_OF_ASC_NODE": 67.0651, "ARG_OF_PERICENTER": 243.6331, "MEAN_ANOMALY": 116.348, "EPHEMERIS_TYPE": 0, "CLASSIFICATION_TYPE": "U", "NORAD_CAT_ID": 66994, "ELEMENT_SET_NO": 999, "REV_AT_EPOCH": 157, "BSTAR": 0.00020132384, "MEAN_MOTION_DOT": 2.769e-05, "MEAN_MOTION_DDOT": 0}, "tle": {"line1": "1 66994U 25292B   25354.58804093  .00002769  00000+0  20132-3 0  9994", "line2": "2 66994  97.6531  67.0651 0013787 243.6331 116.3480 15.04589511  1575"}}, "geometry": {"type": "Point", "coordinates": [68.56075242299538, -9.575719834866728]}}, {"type": "Feature", "properties": {"norad_id": 66995, "name": "2025-292C", "group": "last-30-days", "lat": -9.059353694796332, "lon": 68.4883448940134, "alt_km": 559.7862250671533, "timestamp": "2025-12-20T18:51:30.449199+00:00", "meta": {"OBJECT_NAME": "2025-292C", "OBJECT_ID": "2025-292C", "EPOCH": "2025-12-20T14:06:38.717568", "MEAN_MOTION": 15.04616488, "ECCENTRICITY": 0.00140842, "INCLINATION": 97.6521, "RA_OF_ASC_NODE": 67.0641, "ARG_OF_PERICENTER": 244.019, "MEAN_ANOMALY": 115.9586, "EPHEMERIS_TYPE": 0, "CLASSIFICATION_TYPE": "U", "NORAD_CAT_ID": 66995, "ELEMENT_SET_NO": 999, "REV_AT_EPOCH": 157, "BSTAR": 0.00022129393, "MEAN_MOTION_DOT": 3.052e-05, "MEAN_MOTION_DDOT": 0}, "tle": {"line1": "1 66995U 25292C   25354.58794812  .00003052  00000+0  22129-3 0  9996", "line2": "2 66995  97.6521  67.0641 0014084 244.0190 115.9586 15.04616488  1579"}}, "geometry": {"type": "Point", "coordinates": [68.4883448940134, -9.059353694796332]}}, {"type": "Feature", "properties": {"norad_id": 66996, "name": "2025-292D", "group": "last-30-days", "lat": -7.424854902683993, "lon": 68.26383436602529, "alt_km": 559.1837391359786, "timestamp": "2025-12-20T18:51:30.449209+00:00", "meta": {"OBJECT_NAME": "2025-292D", "OBJECT_ID": "2025-292D", "EPOCH": "2025-12-20T14:06:12.651552", "MEAN_MOTION": 15.04643827, "ECCENTRICITY": 0.00132468, "INCLINATION": 97.6515, "RA_OF_ASC_NODE": 67.0638, "ARG_OF_PERICENTER": 246.7117, "MEAN_ANOMALY": 113.2715, "EPHEMERIS_TYPE": 0, "CLASSIFICATION_TYPE": "U", "NORAD_CAT_ID": 66996, "ELEMENT_SET_NO": 999, "REV_AT_EPOCH": 157, "BSTAR": 0.00014810999, "MEAN_MOTION_DOT": 2.023e-05, "MEAN_MOTION_DDOT": 0}, "tle": {"line1": "1 66996U 25292D   25354.58764643  .00002023  00000+0  14811-3 0  9992", "line2": "2 66996  97.6515  67.0638 0013246 246.7117 113.2715 15.04643827  1578"}}, "geometry": {"type": "Point", "coordinates": [68.26383436602529, -7.424854902683993]}}, {"type": "Feature", "properties": {"norad_id": 66997, "name": "2025-292E", "group": "last-30-days", "lat": -4.347851113577987, "lon": 67.84962239255313, "alt_km": 558.9675712698781, "timestamp": "2025-12-20T18:51:30.449221+00:00", "meta": {"OBJECT_NAME": "2025-292E", "OBJECT_ID": "2025-292E", "EPOCH": "2025-12-20T14:05:24.033408", "MEAN_MOTION": 15.04729702, "ECCENTRICITY": 0.00136285, "INCLINATION": 97.6535, "RA_OF_ASC_NODE": 67.067, "ARG_OF_PERICENTER": 247.6695, "MEAN_ANOMALY": 112.3087, "EPHEMERIS_TYPE": 0, "CLASSIFICATION_TYPE": "U", "NORAD_CAT_ID": 66997, "ELEMENT_SET_NO": 999, "REV_AT_EPOCH": 156, "BSTAR": 0.00016810076, "MEAN_MOTION_DOT": 2.31e-05, "MEAN_MOTION_DDOT": 0}, "tle": {"line1": "1 66997U 25292E   25354.58708372  .00002310  00000+0  16810-3 0  9990", "line2": "2 66997  97.6535  67.0670 0013628 247.6695 112.3087 15.04729702  1560"}}, "geometry": {"type": "Point", "coordinates": [67.84962239255313, -4.347851113577987]}}, {"type": "Feature", "properties": {"norad_id": 66998, "name": "2025-292F", "group": "last-30-days", "lat": 1.6442473938988773, "lon": 67.04769011381975, "alt_km": 558.7890312932614, "timestamp": "2025-12-20T18:51:30.449231+00:00", "meta": {"OBJECT_NAME": "2025-292F", "OBJECT_ID": "2025-292F", "EPOCH": "2025-12-20T14:03:49.404672", "MEAN_MOTION": 15.04899416, "ECCENTRICITY": 0.00147407, "INCLINATION": 97.6555, "RA_OF_ASC_NODE": 67.0709, "ARG_OF_PERICENTER": 248.5201, "MEAN_ANOMALY": 111.4454, "EPHEMERIS_TYPE": 0, "CLASSIFICATION_TYPE": "U", "NORAD_CAT_ID": 66998, "ELEMENT_SET_NO": 999, "REV_AT_EPOCH": 157, "BSTAR": 0.00021535752, "MEAN_MOTION_DOT": 2.992e-05, "MEAN_MOTION_DDOT": 0}, "tle": {"line1": "1 66998U 25292F   25354.58598848  .00002992  00000+0  21536-3 0  9993", "line2": "2 66998  97.6555  67.0709 0014740 248.5201 111.4454 15.04899416  1574"}}, "geometry": {"type": "Point", "coordinates": [67.04769011381975, 1.6442473938988773]}}]}